CCSDS_OMM_VERS = 2.0
CREATION_DATE  = 
ORIGINATOR     = 

OBJECT_NAME    = STARLINK-36489
OBJECT_ID      = 2026-002Z
CENTER_NAME    = EARTH
REF_FRAME      = TEME
TIME_SYSTEM    = UTC
MEAN_ELEMENT_THEORY = SGP/SGP4

EPOCH          = 2026-01-10T22:00:01.999584
MEAN_MOTION    = 16.00802127
ECCENTRICITY   = .00019798
INCLINATION    = 42.9994
RA_OF_ASC_NODE = 301.2251
ARG_OF_PERICENTER = 261.9740
MEAN_ANOMALY   = 75.5954

EPHEMERIS_TYPE = 0
CLASSIFICATION_TYPE = U
NORAD_CAT_ID   = 67328
ELEMENT_SET_NO = 999
REV_AT_EPOCH   = 228
BSTAR          = -.22623441E-2
MEAN_MOTION_DOT = -.1260513E-1
MEAN_MOTION_DDOT = .5048413E-3

CCSDS_OMM_VERS = 2.0
CREATION_DATE  = 
ORIGINATOR     = 

OBJECT_NAME    = STARLINK-36496
OBJECT_ID      = 2026-002AA
CENTER_NAME    = EARTH
REF_FRAME      = TEME
TIME_SYSTEM    = UTC
MEAN_ELEMENT_THEORY = SGP/SGP4

EPOCH          = 2026-01-10T22:00:01.999584
MEAN_MOTION    = 16.00999845
ECCENTRICITY   = .00019447
INCLINATION    = 42.9994
RA_OF_ASC_NODE = 301.2166
ARG_OF_PERICENTER = 262.4266
MEAN_ANOMALY   = 78.4685

EPHEMERIS_TYPE = 0
CLASSIFICATION_TYPE = U
NORAD_CAT_ID   = 67329
ELEMENT_SET_NO = 999
REV_AT_EPOCH   = 211
BSTAR          = -.22381097E-2
MEAN_MOTION_DOT = -.1261391E-1
MEAN_MOTION_DDOT = .50657264E-3

CCSDS_OMM_VERS = 2.0
CREATION_DATE  = 
ORIGINATOR     = 

OBJECT_NAME    = STARLINK-36483
OBJECT_ID      = 2026-002AB
CENTER_NAME    = EARTH
REF_FRAME      = TEME
TIME_SYSTEM    = UTC
MEAN_ELEMENT_THEORY = SGP/SGP4

EPOCH          = 2026-01-10T22:00:01.999584
MEAN_MOTION    = 16.01224894
ECCENTRICITY   = .00020352
INCLINATION    = 42.9993
RA_OF_ASC_NODE = 301.2049
ARG_OF_PERICENTER = 263.2926
MEAN_ANOMALY   = 82.0752

EPHEMERIS_TYPE = 0
CLASSIFICATION_TYPE = U
NORAD_CAT_ID   = 67330
ELEMENT_SET_NO = 999
REV_AT_EPOCH   = 228
BSTAR          = -.22120205E-2
MEAN_MOTION_DOT = -.1263141E-1
MEAN_MOTION_DDOT = .50910713E-3

CCSDS_OMM_VERS = 2.0
CREATION_DATE  = 
ORIGINATOR     = 

OBJECT_NAME    = STARLINK-36494
OBJECT_ID      = 2026-002AC
CENTER_NAME    = EARTH
REF_FRAME      = TEME
TIME_SYSTEM    = UTC
MEAN_ELEMENT_THEORY = SGP/SGP4

EPOCH          = 2026-01-10T22:00:01.999584
MEAN_MOTION    = 16.00907755
ECCENTRICITY   = .00019585
INCLINATION    = 42.9994
RA_OF_ASC_NODE = 301.2205
ARG_OF_PERICENTER = 259.4087
MEAN_ANOMALY   = 79.9269

EPHEMERIS_TYPE = 0
CLASSIFICATION_TYPE = U
NORAD_CAT_ID   = 67331
ELEMENT_SET_NO = 999
REV_AT_EPOCH   = 228
BSTAR          = -.22522357E-2
MEAN_MOTION_DOT = -.1262567E-1
MEAN_MOTION_DDOT = .50692961E-3

CCSDS_OMM_VERS = 2.0
CREATION_DATE  = 
ORIGINATOR     = 

OBJECT_NAME    = STARLINK-36492
OBJECT_ID      = 2026-002AD
CENTER_NAME    = EARTH
REF_FRAME      = TEME
TIME_SYSTEM    = UTC
MEAN_ELEMENT_THEORY = SGP/SGP4

EPOCH          = 2026-01-10T22:00:01.999584
MEAN_MOTION    = 16.01154873
ECCENTRICITY   = .00019488
INCLINATION    = 42.9994
RA_OF_ASC_NODE = 301.2082
ARG_OF_PERICENTER = 260.8365
MEAN_ANOMALY   = 83.2259

EPHEMERIS_TYPE = 0
CLASSIFICATION_TYPE = U
NORAD_CAT_ID   = 67332
ELEMENT_SET_NO = 999
REV_AT_EPOCH   = 228
BSTAR          = -.22357036E-2
MEAN_MOTION_DOT = -.1271339E-1
MEAN_MOTION_DDOT = .51477695E-3

CCSDS_OMM_VERS = 2.0
CREATION_DATE  = 
ORIGINATOR     = 

OBJECT_NAME    = STARLINK-36427
OBJECT_ID      = 2026-002AE
CENTER_NAME    = EARTH
REF_FRAME      = TEME
TIME_SYSTEM    = UTC
MEAN_ELEMENT_THEORY = SGP/SGP4

EPOCH          = 2026-01-10T22:00:01.999584
MEAN_MOTION    = 16.04905035
ECCENTRICITY   = .0002004
INCLINATION    = 42.9989
RA_OF_ASC_NODE = 301.1345
ARG_OF_PERICENTER = 261.8711
MEAN_ANOMALY   = 111.1264

EPHEMERIS_TYPE = 0
CLASSIFICATION_TYPE = U
NORAD_CAT_ID   = 67333
ELEMENT_SET_NO = 999
REV_AT_EPOCH   = 218
BSTAR          = -.11131546E-2
MEAN_MOTION_DOT = -.795965E-2
MEAN_MOTION_DDOT = .22880444E-3

