STARLINK-36489          
1 67328U 26002Z   26010.91668981 -.01260513  50484-3 -22623-2 0  9994
2 67328  42.9994 301.2251 0001979 261.9740  75.5954 16.00802127  2288
STARLINK-36496          
1 67329U 26002AA  26010.91668981 -.01261391  50657-3 -22381-2 0  9993
2 67329  42.9994 301.2166 0001944 262.4266  78.4685 16.00999845  2114
STARLINK-36483          
1 67330U 26002AB  26010.91668981 -.01263141  50911-3 -22120-2 0  9994
2 67330  42.9993 301.2049 0002035 263.2926  82.0752 16.01224894  2289
STARLINK-36494          
1 67331U 26002AC  26010.91668981 -.01262567  50693-3 -22522-2 0  9999
2 67331  42.9994 301.2205 0001958 259.4087  79.9269 16.00907755  2284
STARLINK-36492          
1 67332U 26002AD  26010.91668981 -.01271339  51478-3 -22357-2 0  9995
2 67332  42.9994 301.2082 0001948 260.8365  83.2259 16.01154873  2285
STARLINK-36427          
1 67333U 26002AE  26010.91668981 -.00795965  22880-3 -11132-2 0  9995
2 67333  42.9989 301.1345 0002004 261.8711 111.1264 16.04905035  2184
